[
   {
      "name": "STARLINK-1172",
      "line1": "1 45074U 20006AG  21092.68977759 -.00001159  00000-0 -58944-4 0  9992",
      "line2": "2 45074  53.0588  76.0932 0001178  61.5746 298.5361 15.06393168 65135",
      "drg": -5.8944,
      "inc": 53.0588,
      "ran": 76.0932,
      "ecc": 0.0001178,
      "aop": 61.5746,
      "man": 298.5361,
      "mmo": 15.06393168,
      "sma": 6925.3695
   },
   {
      "name": "STARLINK-1174",
      "line1": "1 45075U 20006AH  21092.65660972 -.00000667  00000-0 -25926-4 0  9993",
      "line2": "2 45075  53.0575  76.2409 0001054  93.9452 266.1658 15.06392436 65136",
      "drg": -2.5926,
      "inc": 53.0575,
      "ran": 76.2409,
      "ecc": 0.0001054,
      "aop": 93.9452,
      "man": 266.1658,
      "mmo": 15.06392436,
      "sma": 6925.37174
   },
   {
      "name": "STARLINK-1180",
      "line1": "1 45076U 20006AJ  21092.92936717  .00000972  00000-0  84137-4 0  9993",
      "line2": "2 45076  53.0586  75.0133 0001062  75.4641 284.6465 15.06397488 65171",
      "drg": 8.4137,
      "inc": 53.0586,
      "ran": 75.0133,
      "ecc": 0.0001062,
      "aop": 75.4641,
      "man": 284.6465,
      "mmo": 15.06397488,
      "sma": 6925.35626
   },
   {
      "name": "STARLINK-1182",
      "line1": "1 45077U 20006AK  21092.88513414  .00000434  00000-0  48024-4 0  9992",
      "line2": "2 45077  53.0587  75.2208 0000866  61.9728 298.1348 15.06410001 65161",
      "drg": 4.8024,
      "inc": 53.0587,
      "ran": 75.2208,
      "ecc": 8.66e-05,
      "aop": 61.9728,
      "man": 298.1348,
      "mmo": 15.06410001,
      "sma": 6925.31791
   },
   {
      "name": "STARLINK-1177",
      "line1": "1 45078U 20006AL  21092.64547399  .00000688  00000-0  66335-4 0  9992",
      "line2": "2 45078  53.0016  76.3145 0000649  62.7011 297.4043 15.05589264 65121",
      "drg": 6.6335,
      "inc": 53.0016,
      "ran": 76.3145,
      "ecc": 6.49e-05,
      "aop": 62.7011,
      "man": 297.4043,
      "mmo": 15.05589264,
      "sma": 6927.83446
   },
   {
      "name": "STARLINK-1149",
      "line1": "1 45079U 20006AM  21092.92568817  .00000525  00000-0  54167-4 0  9992",
      "line2": "2 45079  53.0583  75.0321 0000919  79.4527 280.6565 15.06384682 65165",
      "drg": 5.4167,
      "inc": 53.0583,
      "ran": 75.0321,
      "ecc": 9.19e-05,
      "aop": 79.4527,
      "man": 280.6565,
      "mmo": 15.06384682,
      "sma": 6925.39551
   },
   {
      "name": "STARLINK-1153",
      "line1": "1 45080U 20006AN  21092.93305489 -.00001213  00000-0 -62548-4 0  9998",
      "line2": "2 45080  53.0581  75.0014 0001470  67.2847 292.8297 15.06393048 65171",
      "drg": -6.2548,
      "inc": 53.0581,
      "ran": 75.0014,
      "ecc": 0.000147,
      "aop": 67.2847,
      "man": 292.8297,
      "mmo": 15.06393048,
      "sma": 6925.36987
   },
   {
      "name": "STARLINK-1151",
      "line1": "1 45081U 20006AP  21092.64556214  .00000793  00000-0  72130-4 0  9999",
      "line2": "2 45081  53.0573  76.2932 0000659  92.2003 267.9062 15.06396437 65139",
      "drg": 7.213,
      "inc": 53.0573,
      "ran": 76.2932,
      "ecc": 6.59e-05,
      "aop": 92.2003,
      "man": 267.9062,
      "mmo": 15.06396437,
      "sma": 6925.35948
   },
   {
      "name": "STARLINK-1160",
      "line1": "1 45082U 20006AQ  21092.36909541  .00000574  00000-0  57432-4 0  9999",
      "line2": "2 45082  53.0594  77.5374 0000866  74.4815 285.6270 15.06404215 65086",
      "drg": 5.7432,
      "inc": 53.0594,
      "ran": 77.5374,
      "ecc": 8.66e-05,
      "aop": 74.4815,
      "man": 285.627,
      "mmo": 15.06404215,
      "sma": 6925.33564
   },
   {
      "name": "STARLINK-1190",
      "line1": "1 45083U 20006AR  21092.73216955  .00000700  00000-0  65847-4 0  9991",
      "line2": "2 45083  53.0564  95.9092 0000623 108.1487 251.9570 15.06396018 64861",
      "drg": 6.5847,
      "inc": 53.0564,
      "ran": 95.9092,
      "ecc": 6.23e-05,
      "aop": 108.1487,
      "man": 251.957,
      "mmo": 15.06396018,
      "sma": 6925.36076
   },
   {
      "name": "STARLINK-1173",
      "line1": "1 45084U 20006AS  21092.91277583 -.00001396  00000-0 -74863-4 0  9998",
      "line2": "2 45084  53.0571  55.1143 0000739  77.8283 282.2788 15.06391693 65457",
      "drg": -7.4863,
      "inc": 53.0571,
      "ran": 55.1143,
      "ecc": 7.39e-05,
      "aop": 77.8283,
      "man": 282.2788,
      "mmo": 15.06391693,
      "sma": 6925.37402
   },
   {
      "name": "STARLINK-1179",
      "line1": "1 45085U 20006AT  21092.90909075  .00000525  00000-0  54162-4 0  9997",
      "line2": "2 45085  53.0570  55.1304 0000988  85.9703 274.1399 15.06394416 65453",
      "drg": 5.4162,
      "inc": 53.057,
      "ran": 55.1304,
      "ecc": 9.88e-05,
      "aop": 85.9703,
      "man": 274.1399,
      "mmo": 15.06394416,
      "sma": 6925.36567
   },
   {
      "name": "STARLINK-1181",
      "line1": "1 45086U 20006AU  21092.91971646  .00001574  00000-0  12470-3 0  9992",
      "line2": "2 45086  53.0043  54.5717 0000866 105.1240 254.9844 15.06347828 65395",
      "drg": 12.47,
      "inc": 53.0043,
      "ran": 54.5717,
      "ecc": 8.66e-05,
      "aop": 105.124,
      "man": 254.9844,
      "mmo": 15.06347828,
      "sma": 6925.50846
   },
   {
      "name": "STARLINK-1185",
      "line1": "1 45087U 20006AV  21092.89436813  .00002292  00000-0  17265-3 0  9997",
      "line2": "2 45087  53.0565  55.1959 0001114  60.5134 299.5966 15.06406676 65457",
      "drg": 17.265,
      "inc": 53.0565,
      "ran": 55.1959,
      "ecc": 0.0001114,
      "aop": 60.5134,
      "man": 299.5966,
      "mmo": 15.06406676,
      "sma": 6925.3281
   },
   {
      "name": "STARLINK-1183",
      "line1": "1 45088U 20006AW  21092.91646023  .00000811  00000-0  73307-4 0  9992",
      "line2": "2 45088  53.0573  55.0922 0000257 329.3301  30.7673 15.06394977 65455",
      "drg": 7.3307,
      "inc": 53.0573,
      "ran": 55.0922,
      "ecc": 2.57e-05,
      "aop": 329.3301,
      "man": 30.7673,
      "mmo": 15.06394977,
      "sma": 6925.36395
   },
   {
      "name": "STARLINK-1136",
      "line1": "1 45089U 20006AX  21092.92016555  .00000936  00000-0  81713-4 0  9993",
      "line2": "2 45089  53.0570  55.0812 0000841  84.9739 275.1346 15.06392664 65463",
      "drg": 8.1713,
      "inc": 53.057,
      "ran": 55.0812,
      "ecc": 8.41e-05,
      "aop": 84.9739,
      "man": 275.1346,
      "mmo": 15.06392664,
      "sma": 6925.37104
   },
   {
      "name": "STARLINK-1176",
      "line1": "1 45090U 20006AY  21092.90171756  .00000815  00000-0  73580-4 0  9997",
      "line2": "2 45090  53.0572  55.1641 0000757  64.5315 295.5752 15.06396851 65456",
      "drg": 7.358,
      "inc": 53.0572,
      "ran": 55.1641,
      "ecc": 7.57e-05,
      "aop": 64.5315,
      "man": 295.5752,
      "mmo": 15.06396851,
      "sma": 6925.35821
   },
   {
      "name": "STARLINK-1127",
      "line1": "1 45091U 20006AZ  21092.86854832 -.00001267  00000-0 -66215-4 0  9997",
      "line2": "2 45091  53.0563  55.3121 0000408 106.2534 253.8500 15.06394101 65445",
      "drg": -6.6215,
      "inc": 53.0563,
      "ran": 55.3121,
      "ecc": 4.08e-05,
      "aop": 106.2534,
      "man": 253.85,
      "mmo": 15.06394101,
      "sma": 6925.36664
   },
   {
      "name": "STARLINK-1137",
      "line1": "1 45092U 20006BA  21092.61052999 -.00000885  00000-0 -40554-4 0  9998",
      "line2": "2 45092  53.0574  56.4562 0000293 136.6378 223.4634 15.06392503 65405",
      "drg": -4.0554,
      "inc": 53.0574,
      "ran": 56.4562,
      "ecc": 2.93e-05,
      "aop": 136.6378,
      "man": 223.4634,
      "mmo": 15.06392503,
      "sma": 6925.37154
   },
   {
      "name": "STARLINK-1142",
      "line1": "1 45093U 20006BB  21092.60683922  .00001243  00000-0  10234-3 0  9992",
      "line2": "2 45093  53.0572  56.4713 0000784  71.7558 288.3516 15.06400148 65400",
      "drg": 10.234,
      "inc": 53.0572,
      "ran": 56.4713,
      "ecc": 7.84e-05,
      "aop": 71.7558,
      "man": 288.3516,
      "mmo": 15.06400148,
      "sma": 6925.34811
   },
   {
      "name": "STARLINK-1146",
      "line1": "1 45094U 20006BC  21092.88696948  .00001260  00000-0  10347-3 0  9999",
      "line2": "2 45094  53.0564  55.2318 0001165  89.5226 270.5897 15.06403633 65455",
      "drg": 10.347,
      "inc": 53.0564,
      "ran": 55.2318,
      "ecc": 0.0001165,
      "aop": 89.5226,
      "man": 270.5897,
      "mmo": 15.06403633,
      "sma": 6925.33742
   },
   {
      "name": "STARLINK-1147",
      "line1": "1 45095U 20006BD  21092.62527160 -.00001027  00000-0 -50045-4 0  9994",
      "line2": "2 45095  53.0580  56.3950 0001208  66.7111 293.4005 15.06397897 65411",
      "drg": -5.0045,
      "inc": 53.058,
      "ran": 56.395,
      "ecc": 0.0001208,
      "aop": 66.7111,
      "man": 293.4005,
      "mmo": 15.06397897,
      "sma": 6925.355
   },
   {
      "name": "STARLINK-1152",
      "line1": "1 45096U 20006BE  21092.61790700  .00000662  00000-0  63311-4 0  9998",
      "line2": "2 45096  53.0576  56.4270 0000390 196.2182 163.8794 15.06387821 65401",
      "drg": 6.3311,
      "inc": 53.0576,
      "ran": 56.427,
      "ecc": 3.9e-05,
      "aop": 196.2182,
      "man": 163.8794,
      "mmo": 15.06387821,
      "sma": 6925.38589
   },
   {
      "name": "STARLINK-1184",
      "line1": "1 45098U 20006BG  21092.93120894  .00000557  00000-0  56283-4 0  9999",
      "line2": "2 45098  53.0578  55.0282 0000898  65.0348 295.0735 15.06393307 65457",
      "drg": 5.6283,
      "inc": 53.0578,
      "ran": 55.0282,
      "ecc": 8.98e-05,
      "aop": 65.0348,
      "man": 295.0735,
      "mmo": 15.06393307,
      "sma": 6925.36907
   }
]